[
    {
        "name": "Argentina",
        "dial_code": "+54",
        "code": "AR"
    },
    {
        "name": "Australia",
        "dial_code": "+61",
        "code": "AU"
    },
    {
        "name": "Austria",
        "dial_code": "+43",
        "code": "AT"
    },
    {
        "name": "Belgium",
        "dial_code": "+32",
        "code": "BE"
    },
    {
        "name": "Brazil",
        "dial_code": "+55",
        "code": "BR"
    },
    {
        "name": "Brunei Darussalam",
        "dial_code": "+673",
        "code": "BN"
    },
    {
        "name": "Cambodia",
        "dial_code": "+855",
        "code": "KH"
    },
    {
        "name": "Cameroon",
        "dial_code": "+237",
        "code": "CM"
    },
    {
        "name": "Canada",
        "dial_code": "+1",
        "code": "CA"
    },
    {
        "name": "Chile",
        "dial_code": "+56",
        "code": "CL"
    },
    {
        "name": "China",
        "dial_code": "+86",
        "code": "CN"
    },
    {
        "name": "Colombia",
        "dial_code": "+57",
        "code": "CO"
    },
    {
        "name": "Croatia",
        "dial_code": "+385",
        "code": "HR"
    },
    {
        "name": "Cuba",
        "dial_code": "+53",
        "code": "CU"
    },
    {
        "name": "Cyprus",
        "dial_code": "+357",
        "code": "CY"
    },
    {
        "name": "Czech Republic",
        "dial_code": "+420",
        "code": "CZ"
    },
    {
        "name": "Denmark",
        "dial_code": "+45",
        "code": "DK"
    },
    {
        "name": "Ecuador",
        "dial_code": "+593",
        "code": "EC"
    },
    {
        "name": "Egypt",
        "dial_code": "+20",
        "code": "EG"
    },
    {
        "name": "Finland",
        "dial_code": "+358",
        "code": "FI"
    },
    {
        "name": "France",
        "dial_code": "+33",
        "code": "FR"
    },
    {
        "name": "Germany",
        "dial_code": "+49",
        "code": "DE"
    },
    {
        "name": "Greece",
        "dial_code": "+30",
        "code": "GR"
    },
    {
        "name": "Hong Kong",
        "dial_code": "+852",
        "code": "HK"
    },
    {
        "name": "Hungary",
        "dial_code": "+36",
        "code": "HU"
    },
    {
        "name": "India",
        "dial_code": "+91",
        "code": "IN"
    },
    {
        "name": "Indonesia",
        "dial_code": "+62",
        "code": "ID"
    },
    {
        "name": "Iran, Islamic Republic of Persian Gulf",
        "dial_code": "+98",
        "code": "IR"
    },
    {
        "name": "Iraq",
        "dial_code": "+964",
        "code": "IQ"
    },
    {
        "name": "Ireland",
        "dial_code": "+353",
        "code": "IE"
    },
    {
        "name": "Israel",
        "dial_code": "+972",
        "code": "IL"
    },
    {
        "name": "Italy",
        "dial_code": "+39",
        "code": "IT"
    },
    {
        "name": "Japan",
        "dial_code": "+81",
        "code": "JP"
    },
    {
        "name": "Korea, Democratic People's Republic of Korea",
        "dial_code": "+850",
        "code": "KP"
    },
    {
        "name": "Korea, Republic of South Korea",
        "dial_code": "+82",
        "code": "KR"
    },
    {
        "name": "Laos",
        "dial_code": "+856",
        "code": "LA"
    },
    {
        "name": "Malaysia",
        "dial_code": "+60",
        "code": "MY"
    },
    {
        "name": "Mexico",
        "dial_code": "+52",
        "code": "MX"
    },
    {
        "name": "Moldova",
        "dial_code": "+373",
        "code": "MD"
    },
    {
        "name": "Monaco",
        "dial_code": "+377",
        "code": "MC"
    },
    {
        "name": "Morocco",
        "dial_code": "+212",
        "code": "MA"
    },
    {
        "name": "Myanmar",
        "dial_code": "+95",
        "code": "MM"
    },
    {
        "name": "Netherlands",
        "dial_code": "+31",
        "code": "NL"
    },
    {
        "name": "New Zealand",
        "dial_code": "+64",
        "code": "NZ"
    },
    {
        "name": "Norway",
        "dial_code": "+47",
        "code": "NO"
    },
    {
        "name": "Pakistan",
        "dial_code": "+92",
        "code": "PK"
    },
    {
        "name": "Palestinian Territory, Occupied",
        "dial_code": "+970",
        "code": "PS"
    },
    {
        "name": "Peru",
        "dial_code": "+51",
        "code": "PE"
    },
    {
        "name": "Philippines",
        "dial_code": "+63",
        "code": "PH"
    },
    {
        "name": "Poland",
        "dial_code": "+48",
        "code": "PL"
    },
    {
        "name": "Portugal",
        "dial_code": "+351",
        "code": "PT"
    },
    {
        "name": "Qatar",
        "dial_code": "+974",
        "code": "QA"
    },
    {
        "name": "Romania",
        "dial_code": "+40",
        "code": "RO"
    },
    {
        "name": "Russia",
        "dial_code": "+7",
        "code": "RU"
    },
    {
        "name": "Saudi Arabia",
        "dial_code": "+966",
        "code": "SA"
    },
    {
        "name": "Singapore",
        "dial_code": "+65",
        "code": "SG"
    },
    {
        "name": "Slovakia",
        "dial_code": "+421",
        "code": "SK"
    },
    {
        "name": "South Africa",
        "dial_code": "+27",
        "code": "ZA"
    },
    {
        "name": "Spain",
        "dial_code": "+34",
        "code": "ES"
    },
    {
        "name": "Sweden",
        "dial_code": "+46",
        "code": "SE"
    },
    {
        "name": "Switzerland",
        "dial_code": "+41",
        "code": "CH"
    },
    {
        "name": "Taiwan",
        "dial_code": "+886",
        "code": "TW"
    },
    {
        "name": "Thailand",
        "dial_code": "+66",
        "code": "TH"
    },
    {
        "name": "Turkey",
        "dial_code": "+90",
        "code": "TR"
    },
    {
        "name": "Ukraine",
        "dial_code": "+380",
        "code": "UA"
    },
    {
        "name": "United Arab Emirates",
        "dial_code": "+971",
        "code": "AE"
    },
    {
        "name": "United Kingdom",
        "dial_code": "+44",
        "code": "GB"
    },
    {
        "name": "United States",
        "dial_code": "+1",
        "code": "US"
    },
    {
        "name": "Uruguay",
        "dial_code": "+598",
        "code": "UY"
    },
    {
        "name": "Vietnam",
        "dial_code": "+84",
        "code": "VN"
    }
]